ONEWEB-0283             
1 49001U 21060AL  25041.84099007  .00000078  00000+0  16955-3 0  9995
2 49001  87.9128 326.7123 0001736  87.2299 272.9031 13.16596966174962
ONEWEB-0284             
1 49002U 21060AM  25041.83465430 -.00000257  00000+0 -70685-3 0  9993
2 49002  87.9122 326.6831 0001936  74.1041 286.0303 13.16594927174945
ONEWEB-0285             
1 49075U 21075A   25041.63551960  .00000118  00000+0  29209-3 0  9991
2 49075  87.8825  88.5261 0001941  96.4080 263.7270 13.12445224170730
ONEWEB-0286             
1 49076U 21075B   25041.68323237 -.00000560  00000+0 -15912-2 0  9999
2 49076  87.8825  88.5113 0001659  92.8846 267.2472 13.12444505170096
ONEWEB-0287             
1 49077U 21075C   25041.70776424  .00000013  00000+0  14165-6 0  9997
2 49077  87.9058 103.7819 0001632  87.4521 272.6797 13.17647698168900
ONEWEB-0288             
1 49078U 21075D   25041.66944738  .00000088  00000+0  20971-3 0  9999
2 49078  87.8821  88.5175 0001919  91.8218 268.3130 13.12442915170718
ONEWEB-0289             
1 49079U 21075E   25041.66052616  .00000022  00000+0  23315-4 0  9999
2 49079  87.9058 103.8215 0002424  92.5545 267.5864 13.17650287169475
ONEWEB-0290             
1 49080U 21075F   25041.71958153  .00000023  00000+0  27114-4 0  9990
2 49080  87.9057 103.7673 0002630  98.5038 261.6391 13.17649629168898
